{
    "links": {
        "self": "http://www.neowsapp.com/rest/v1/neo/3838102?api_key=iIulBulltgU6a56xZRHN4H3l9WmuAYTsLGpBGhQ2"
    },
    "id": "3838102",
    "neo_reference_id": "3838102",
    "name": "(2019 CZ)",
    "designation": "2019 CZ",
    "nasa_jpl_url": "http://ssd.jpl.nasa.gov/sbdb.cgi?sstr=3838102",
    "absolute_magnitude_h": 26.3,
    "estimated_diameter": {
        "kilometers": {
            "estimated_diameter_min": 0.0146067964,
            "estimated_diameter_max": 0.0326617897
        },
        "meters": {
            "estimated_diameter_min": 14.6067964271,
            "estimated_diameter_max": 32.6617897446
        },
        "miles": {
            "estimated_diameter_min": 0.0090762397,
            "estimated_diameter_max": 0.020295089
        },
        "feet": {
            "estimated_diameter_min": 47.92256199,
            "estimated_diameter_max": 107.1581062656
        }
    },
    "is_potentially_hazardous_asteroid": false,
    "close_approach_data": [
        {
            "close_approach_date": "2012-11-25",
            "close_approach_date_full": "2012-Nov-25 11:27",
            "epoch_date_close_approach": 1353842820000,
            "relative_velocity": {
                "kilometers_per_second": "16.7002052315",
                "kilometers_per_hour": "60120.7388334284",
                "miles_per_hour": "37356.68908236"
            },
            "miss_distance": {
                "astronomical": "0.4969615513",
                "lunar": "193.3180434557",
                "kilometers": "74344389.546375731",
                "miles": "46195461.5521018478"
            },
            "orbiting_body": "Earth"
        },
        {
            "close_approach_date": "2015-12-25",
            "close_approach_date_full": "2015-Dec-25 06:43",
            "epoch_date_close_approach": 1451025780000,
            "relative_velocity": {
                "kilometers_per_second": "9.1403333658",
                "kilometers_per_hour": "32905.2001167307",
                "miles_per_hour": "20446.0117058652"
            },
            "miss_distance": {
                "astronomical": "0.2522664399",
                "lunar": "98.1316451211",
                "kilometers": "37738522.081523013",
                "miles": "23449630.2476550594"
            },
            "orbiting_body": "Earth"
        },
        {
            "close_approach_date": "2019-01-26",
            "close_approach_date_full": "2019-Jan-26 08:25",
            "epoch_date_close_approach": 1548491100000,
            "relative_velocity": {
                "kilometers_per_second": "6.2549398804",
                "kilometers_per_hour": "22517.7835696011",
                "miles_per_hour": "13991.6750185669"
            },
            "miss_distance": {
                "astronomical": "0.0392561075",
                "lunar": "15.2706258175",
                "kilometers": "5872630.066491025",
                "miles": "3649083.113085145"
            },
            "orbiting_body": "Earth"
        },
        {
            "close_approach_date": "2022-02-12",
            "close_approach_date_full": "2022-Feb-12 11:08",
            "epoch_date_close_approach": 1644664080000,
            "relative_velocity": {
                "kilometers_per_second": "11.4103111701",
                "kilometers_per_hour": "41077.1202123766",
                "miles_per_hour": "25523.725056407"
            },
            "miss_distance": {
                "astronomical": "0.2516081789",
                "lunar": "97.8755815921",
                "kilometers": "37640047.638018943",
                "miles": "23388441.0658416934"
            },
            "orbiting_body": "Earth"
        }
    ],
    "orbital_data": {
        "orbit_id": "1",
        "orbit_determination_date": "2019-02-06 21:02:56",
        "first_observation_date": "2019-01-25",
        "last_observation_date": "2019-02-06",
        "data_arc_in_days": 12,
        "observations_used": 25,
        "orbit_uncertainty": "7",
        "minimum_orbit_intersection": ".0389437",
        "jupiter_tisserand_invariant": "4.902",
        "epoch_osculation": "2459000.5",
        "eccentricity": ".2356893130786733",
        "semi_major_axis": "1.321597498542741",
        "inclination": "10.1019607207147",
        "ascending_node_longitude": "310.1587976695473",
        "orbital_period": "554.9415448423886",
        "perihelion_distance": "1.010111091944709",
        "perihelion_argument": "156.2684194888047",
        "aphelion_distance": "1.633083905140772",
        "perihelion_time": "2459046.634761111871",
        "mean_anomaly": "330.0715973517704",
        "mean_motion": ".6487169745098923",
        "equinox": "J2000",
        "orbit_class": {
            "orbit_class_type": "APO",
            "orbit_class_description": "Near-Earth asteroid orbits which cross the Earth’s orbit similar to that of 1862 Apollo",
            "orbit_class_range": "a (semi-major axis) > 1.0 AU; q (perihelion) < 1.017 AU"
        }
    },
    "is_sentry_object": false
}